STARLINK-30385          
1 57778U 23134H   25223.53211081 -.00000710  00000+0 -37498-4 0  9996
2 57778  43.0034 246.9758 0001478 274.3449  85.7225 15.02531943107846
STARLINK-30359          
1 57779U 23134J   25223.79136923 -.00000338  00000+0 -99190-5 0  9990
2 57779  43.0027 245.5159 0001320 277.6421  82.4272 15.02531446108048
STARLINK-30380          
1 57780U 23134K   25224.08352265 -.00000984  00000+0 -57757-4 0  9993
2 57780  43.0006 256.2198 0000728 252.1422 107.9341 15.02537636107708
STARLINK-30369          
1 57781U 23134L   25223.37557151 -.00001515  00000+0 -97123-4 0  9998
2 57781  43.0020 260.3641 0001214 274.4881  85.5823 15.02526025107763
STARLINK-30376          
1 57782U 23134M   25223.82093243 -.00000671  00000+0 -34628-4 0  9999
2 57782  43.0028 257.7000 0001190 271.4052  88.6654 15.02544750107908
STARLINK-30389          
1 57783U 23134N   25223.43538595 -.00000452  00000+0 -18359-4 0  9991
2 57783  43.0018 259.9646 0001177 271.8554  88.2153 15.02532571107845
STARLINK-30388          
1 57784U 23134P   25224.09683212 -.00003024  00000+0 -20884-3 0  9995
2 57784  43.0028 256.3259 0001516 274.9162  85.1507 15.02546514107946
STARLINK-30381          
1 57785U 23134Q   25223.80760009  .00000739  00000+0  69758-4 0  9996
2 57785  43.0030 257.5056 0001396 266.6299  93.4383 15.02533136107909
STARLINK-30382          
1 57786U 23134R   25224.15998167 -.00003493  00000+0 -24354-3 0  9998
2 57786  43.0022 255.9403 0001523 278.3899  81.6770 15.02547998107716
STARLINK-30378          
1 57787U 23134S   25223.80429056 -.00001220  00000+0 -75263-4 0  9998
2 57787  43.0019 257.5702 0001070 271.3897  88.6822 15.02527487107908
STARLINK-30387          
1 57788U 23134T   25223.79457624  .00000874  00000+0  79725-4 0  9998
2 57788  43.0028 244.6909 0001411 281.3602  78.7081 15.02543567108050
STARLINK-30372          
1 57789U 23134U   25224.16075470  .00002388  00000+0  96284-4 0  9997
2 57789  43.0011 181.6830 0001206 274.4974  85.5740 15.27576534108823
STARLINK-30373          
1 57790U 23134V   25224.25002315  .00241470  00000+0  41050-2 0  9993
2 57790  42.9931 197.7677 0019213 137.6838 207.0699 15.49639076108635
STARLINK-30367          
1 57791U 23134W   25224.08018852 -.00000794  00000+0 -43750-4 0  9993
2 57791  43.0028 256.2002 0001339 272.0528  88.0161 15.02532280107793
STARLINK-30304          
1 57808U 23138A   25224.25002315  .00268503  00000+0  47614-2 0  9995
2 57808  42.9952 157.1525 0019292 180.3789 102.9448 15.48338467108743
STARLINK-30374          
1 57809U 23138B   25223.89662811 -.00000922  00000+0 -53164-4 0  9998
2 57809  43.0037 296.3820 0001598 269.2541  90.8118 15.02540525107150
STARLINK-30394          
1 57810U 23138C   25223.89330202 -.00001388  00000+0 -87703-4 0  9999
2 57810  43.0018 296.3591 0001179 279.0181  81.0527 15.02521775107051
STARLINK-30379          
1 57811U 23138D   25223.88996955 -.00001240  00000+0 -76744-4 0  9992
2 57811  43.0024 296.3328 0001204 269.0977  90.9727 15.02527659107157
STARLINK-30395          
1 57812U 23138E   25223.88664225 -.00006441  00000+0 -46197-3 0  9991
2 57812  43.0033 296.3082 0000705 281.4048  78.6716 15.02551867107156
STARLINK-30403          
1 57813U 23138F   25223.88331089 -.00000651  00000+0 -33140-4 0  9993
2 57813  43.0019 296.2819 0001169 269.2137  90.8572 15.02523535107052
STARLINK-30413          
1 57814U 23138G   25223.92980269 -.00000207  00000+0 -27919-6 0  9995
2 57814  43.0021 295.7771 0001318 271.4023  88.6668 15.02534170107162
STARLINK-30398          
1 57815U 23138H   25223.48111062 -.00001343  00000+0 -84408-4 0  9990
2 57815  43.0020 298.4237 0001109 266.4404  93.6311 15.02530250106990
STARLINK-30386          
1 57816U 23138J   25224.20903322 -.00006864  00000+0 -49320-3 0  9996
2 57816  43.0035 294.4258 0001426 272.6963  87.3717 15.02561839106927
STARLINK-30391          
1 57817U 23138K   25223.47444773 -.00000412  00000+0 -15411-4 0  9993
2 57817  42.9996 298.3738 0001251 268.7144  91.3555 15.02530551107092
STARLINK-30401          
1 57818U 23138L   25224.20238021 -.00000393  00000+0 -14000-4 0  9994
2 57818  43.0030 294.3766 0001214 273.6967  86.3737 15.02526416107099
STARLINK-30390          
1 57819U 23138M   25223.53426467  .00002146  00000+0  17387-3 0  9999
2 57819  43.0036 297.9634 0001622 269.2588  90.8069 15.02533517107034
STARLINK-30409          
1 57820U 23138N   25223.91981531 -.00000640  00000+0 -32347-4 0  9994
2 57820  43.0030 295.6778 0001396 268.8375  91.2308 15.02531490107108
STARLINK-30415          
1 57821U 23138P   25224.19016445 -.00006878  00000+0 -49424-3 0  9991
2 57821  43.0033 294.2855 0001331 277.1990  82.8701 15.02561513107199
STARLINK-30407          
1 57823U 23138R   25224.04150063  .00001626  00000+0  68619-4 0  9994
2 57823  43.0000 232.7607 0001165 270.5329  89.5389 15.27572999107907
STARLINK-30408          
1 57824U 23138S   25223.92314515 -.00001204  00000+0 -74069-4 0  9995
2 57824  43.0032 295.7206 0001465 270.7655  89.3020 15.02535046107156
STARLINK-30377          
1 57825U 23138T   25224.23889156  .00001209  00000+0  10460-3 0  9996
2 57825  43.0032 293.7929 0001287 268.5848  91.4846 15.02520981107105
STARLINK-30422          
1 57826U 23138U   25224.24221566  .00001355  00000+0  11536-3 0  9990
2 57826  43.0032 293.8143 0001493 283.8817  76.1860 15.02540989107207
STARLINK-30402          
1 57827U 23138V   25223.91427122 -.00001261  00000+0 -78327-4 0  9990
2 57827  43.0031 295.6548 0001401 270.8210  89.2472 15.02531415107150
STARLINK-30411          
1 57828U 23138W   25223.91648481 -.00000632  00000+0 -31683-4 0  9999
2 57828  43.0054 295.6483 0001529 269.8996  90.1671 15.02533847107090
STARLINK-30418          
1 57829U 23138X   25223.90316127  .00000762  00000+0  71426-4 0  9999
2 57829  43.0031 295.5708 0001325 268.6385  91.4305 15.02545198106996
STARLINK-30285          
1 57840U 23141A   25223.61118876  .00001482  00000+0  62188-4 0  9990
2 57840  53.1620 179.9400 0001422  87.0088 273.1075 15.30188316108160
STARLINK-30410          
1 57841U 23141B   25223.16663100 -.00000581  00000+0 -74875-5 0  9994
2 57841  53.1595 181.9547 0001140  78.1296 281.9832 15.30186737108091
STARLINK-30435          
1 57842U 23141C   25224.14951236  .00000164  00000+0  17654-4 0  9990
2 57842  53.1595 177.4519 0001194  84.0227 276.0910 15.30194284108245
STARLINK-30423          
1 57843U 23141D   25223.17401029  .00000772  00000+0  38166-4 0  9999
2 57843  53.1604 181.9850 0000750  64.2610 295.8468 15.30196368108093
STARLINK-30292          
1 57844U 23141E   25223.57320648  .00000507  00000+0  29253-4 0  9994
2 57844  53.1589 179.7157 0001485  86.9587 273.1583 15.30196965108169
STARLINK-30416          
1 57847U 23141H   25223.35626581  .00000296  00000+0  22131-4 0  9991
2 57847  53.1592 181.1614 0001408  82.9967 277.1194 15.30188149108127
STARLINK-30426          
1 57848U 23141J   25224.15688186  .00001334  00000+0  57168-4 0  9992
2 57848  53.1596 177.4198 0001335  86.6738 273.4415 15.30202214108241
STARLINK-30430          
1 57849U 23141K   25223.61435875 -.00000059  00000+0  10148-4 0  9999
2 57849  53.1622 179.9689 0001886  88.8987 271.2230 15.30192893108168
STARLINK-30425          
1 57850U 23141L   25224.16005425  .00000722  00000+0  36526-4 0  9990
2 57850  53.1601 177.4447 0001341  81.4493 278.6659 15.30192141108240
STARLINK-30405          
1 57851U 23141M   25224.14320054 -.00000132  00000+0  76611-5 0  9993
2 57851  53.1600 177.5257 0001385  81.9246 278.1912 15.30192187108246
STARLINK-30431          
1 57852U 23141N   25224.16631254  .00001041  00000+0  47290-4 0  9992
2 57852  53.1585 177.0121 0001552  89.2038 270.9140 15.30195046108262
STARLINK-30404          
1 57853U 23141P   25224.16208572 -.00002609  00000+0 -75922-4 0  9992
2 57853  53.1622 176.9853 0001673  87.8431 272.2761 15.30221222108259
STARLINK-30412          
1 57854U 23141Q   25224.17264366  .00000024  00000+0  12946-4 0  9991
2 57854  53.1609 177.0517 0001438  94.2376 265.8789 15.30193096108258
STARLINK-30392          
1 57855U 23141R   25223.58164766 -.00000315  00000+0  15013-5 0  9992
2 57855  53.1601 179.7620 0001958  94.0964 266.0260 15.30192366108181
STARLINK-30291          
1 57856U 23141S   25223.99674489  .00000491  00000+0  28693-4 0  9997
2 57856  53.1597 178.0834 0001370 106.8720 253.2432 15.30197060108225
STARLINK-30424          
1 57857U 23141T   25224.19363669  .00000576  00000+0  31593-4 0  9993
2 57857  53.1599 151.2149 0001337  93.6714 266.4440 15.30187353108622
STARLINK-30290          
1 57858U 23141U   25223.91771455  .00000533  00000+0  30141-4 0  9990
2 57858  53.1590 178.3034 0001247  95.5529 264.5614 15.30190955108211
STARLINK-30414          
1 57859U 23141V   25223.58798784 -.00000986  00000+0 -21190-4 0  9996
2 57859  53.1601 179.7995 0001115  94.4492 265.6637 15.30183971108168
STARLINK-30272          
1 57860U 23141W   25223.60802507  .00000903  00000+0  42624-4 0  9992
2 57860  53.1593 179.9246 0001486  90.7220 269.3951 15.30194377108162
STARLINK-30432          
1 57864U 23144A   25223.67282156 -.00002134  00000+0 -14295-3 0  9990
2 57864  43.0039 349.0801 0001296 268.4537  91.6157 15.02529708105979
STARLINK-30427          
1 57865U 23144B   25224.06835175 -.00004656  00000+0 -32968-3 0  9998
2 57865  43.0031 346.8906 0001244 265.5232  94.5468 15.02556041106020
STARLINK-30393          
1 57866U 23144C   25223.67935711 -.00000424  00000+0 -16304-4 0  9998
2 57866  43.0034 348.2718 0001251 274.7301  85.3398 15.02541822105983
STARLINK-30439          
1 57867U 23144D   25223.66615824  .00000811  00000+0  75120-4 0  9997
2 57867  43.0042 349.0322 0001134 270.3749  89.6964 15.02538462106029
STARLINK-30442          
1 57868U 23144E   25224.06170546  .00004322  00000+0  33495-3 0  9999
2 57868  43.0025 346.7964 0000689 252.7138 107.3629 15.02516659106027
